1 29155U 06018A   11273.36702678 -.00000265  00000-0  10000-3 0  7626
2 29155 000.1309 077.6372 0003413 033.2868 314.7755 01.00261836 19638